[{"OBJECT_NAME":"STARLINK-30370","OBJECT_ID":"2023-131V","EPOCH":"2025-07-28T12:54:39.308544","MEAN_MOTION":15.02534382,"ECCENTRICITY":0.0001251,"INCLINATION":43.004,"RA_OF_ASC_NODE":297.2244,"ARG_OF_PERICENTER":268.9857,"MEAN_ANOMALY":91.0842,"EPHEMERIS_TYPE":0,"CLASSIFICATION_TYPE":"U","NORAD_CAT_ID":57751,"ELEMENT_SET_NO":999,"REV_AT_EPOCH":10624,"BSTAR":1.7308e-5,"MEAN_MOTION_DOT":3.0e-7,"MEAN_MOTION_DDOT":0},{"OBJECT_NAME":"STARLINK-30368","OBJECT_ID":"2023-131W","EPOCH":"2025-07-28T14:12:22.463424","MEAN_MOTION":15.02545358,"ECCENTRICITY":0.0001698,"INCLINATION":43.0023,"RA_OF_ASC_NODE":309.4769,"ARG_OF_PERICENTER":279.683,"MEAN_ANOMALY":80.382,"EPHEMERIS_TYPE":0,"CLASSIFICATION_TYPE":"U","NORAD_CAT_ID":57752,"ELEMENT_SET_NO":999,"REV_AT_EPOCH":10621,"BSTAR":1.7916e-5,"MEAN_MOTION_DOT":3.8e-7,"MEAN_MOTION_DDOT":0},{"OBJECT_NAME":"STARLINK-30343","OBJECT_ID":"2023-131X","EPOCH":"2025-07-28T07:15:54.194112","MEAN_MOTION":15.02535501,"ECCENTRICITY":0.0001315,"INCLINATION":43.0036,"RA_OF_ASC_NODE":310.7795,"ARG_OF_PERICENTER":269.4558,"MEAN_ANOMALY":90.6134,"EPHEMERIS_TYPE":0,"CLASSIFICATION_TYPE":"U","NORAD_CAT_ID":57753,"ELEMENT_SET_NO":999,"REV_AT_EPOCH":10617,"BSTAR":9.3219e-7,"MEAN_MOTION_DOT":-1.91e-6,"MEAN_MOTION_DDOT":0},{"OBJECT_NAME":"STARLINK-30397","OBJECT_ID":"2023-134A","EPOCH":"2025-07-28T08:55:44.907456","MEAN_MOTION":15.02533683,"ECCENTRICITY":0.000129,"INCLINATION":43.0026,"RA_OF_ASC_NODE":336.7668,"ARG_OF_PERICENTER":262.3295,"MEAN_ANOMALY":97.7401,"EPHEMERIS_TYPE":0,"CLASSIFICATION_TYPE":"U","NORAD_CAT_ID":57771,"ELEMENT_SET_NO":999,"REV_AT_EPOCH":10572,"BSTAR":-3.8834e-5,"MEAN_MOTION_DOT":-7.28e-6,"MEAN_MOTION_DDOT":0},{"OBJECT_NAME":"STARLINK-30354","OBJECT_ID":"2023-134B","EPOCH":"2025-07-28T09:14:45.477312","MEAN_MOTION":15.02533583,"ECCENTRICITY":0.0001394,"INCLINATION":43.0043,"RA_OF_ASC_NODE":336.0052,"ARG_OF_PERICENTER":268.4679,"MEAN_ANOMALY":91.6003,"EPHEMERIS_TYPE":0,"CLASSIFICATION_TYPE":"U","NORAD_CAT_ID":57772,"ELEMENT_SET_NO":999,"REV_AT_EPOCH":10573,"BSTAR":3.0745e-5,"MEAN_MOTION_DOT":2.12e-6,"MEAN_MOTION_DDOT":0},{"OBJECT_NAME":"STARLINK-30383","OBJECT_ID":"2023-134C","EPOCH":"2025-07-28T08:50:57.050304","MEAN_MOTION":15.02534668,"ECCENTRICITY":0.0001485,"INCLINATION":43.0045,"RA_OF_ASC_NODE":336.7435,"ARG_OF_PERICENTER":271.6799,"MEAN_ANOMALY":88.3874,"EPHEMERIS_TYPE":0,"CLASSIFICATION_TYPE":"U","NORAD_CAT_ID":57773,"ELEMENT_SET_NO":999,"REV_AT_EPOCH":10572,"BSTAR":1.9508e-5,"MEAN_MOTION_DOT":6.0e-7,"MEAN_MOTION_DDOT":0},{"OBJECT_NAME":"STARLINK-30384","OBJECT_ID":"2023-134D","EPOCH":"2025-07-28T19:51:27.541440","MEAN_MOTION":15.02534046,"ECCENTRICITY":0.0001446,"INCLINATION":43.0044,"RA_OF_ASC_NODE":334.1643,"ARG_OF_PERICENTER":266.7022,"MEAN_ANOMALY":93.3655,"EPHEMERIS_TYPE":0,"CLASSIFICATION_TYPE":"U","NORAD_CAT_ID":57774,"ELEMENT_SET_NO":999,"REV_AT_EPOCH":10555,"BSTAR":1.1294e-5,"MEAN_MOTION_DOT":-5.1e-7,"MEAN_MOTION_DDOT":0},{"OBJECT_NAME":"STARLINK-30305","OBJECT_ID":"2023-134E","EPOCH":"2025-07-28T16:44:48.163488","MEAN_MOTION":15.02531212,"ECCENTRICITY":0.0001299,"INCLINATION":43.0038,"RA_OF_ASC_NODE":334.9125,"ARG_OF_PERICENTER":275.3944,"MEAN_ANOMALY":84.675,"EPHEMERIS_TYPE":0,"CLASSIFICATION_TYPE":"U","NORAD_CAT_ID":57775,"ELEMENT_SET_NO":999,"REV_AT_EPOCH":10553,"BSTAR":-3.3428e-5,"MEAN_MOTION_DOT":-6.55e-6,"MEAN_MOTION_DDOT":0},{"OBJECT_NAME":"STARLINK-30360","OBJECT_ID":"2023-134F","EPOCH":"2025-07-28T14:59:29.133600","MEAN_MOTION":15.02530104,"ECCENTRICITY":0.000106,"INCLINATION":43.0037,"RA_OF_ASC_NODE":335.2245,"ARG_OF_PERICENTER":280.3468,"MEAN_ANOMALY":79.7255,"EPHEMERIS_TYPE":0,"CLASSIFICATION_TYPE":"U","NORAD_CAT_ID":57776,"ELEMENT_SET_NO":999,"REV_AT_EPOCH":10576,"BSTAR":-1.0282e-5,"MEAN_MOTION_DOT":-3.42e-6,"MEAN_MOTION_DDOT":0},{"OBJECT_NAME":"STARLINK-30355","OBJECT_ID":"2023-134G","EPOCH":"2025-07-28T16:25:36.728832","MEAN_MOTION":15.02525723,"ECCENTRICITY":0.0001288,"INCLINATION":43.0046,"RA_OF_ASC_NODE":334.7852,"ARG_OF_PERICENTER":269.1939,"MEAN_ANOMALY":90.8756,"EPHEMERIS_TYPE":0,"CLASSIFICATION_TYPE":"U","NORAD_CAT_ID":57777,"ELEMENT_SET_NO":999,"REV_AT_EPOCH":10576,"BSTAR":8.4695e-5,"MEAN_MOTION_DOT":9.4e-6,"MEAN_MOTION_DDOT":0},{"OBJECT_NAME":"STARLINK-30385","OBJECT_ID":"2023-134H","EPOCH":"2025-07-28T18:30:31.076928","MEAN_MOTION":15.0253173,"ECCENTRICITY":0.0001583,"INCLINATION":43.0038,"RA_OF_ASC_NODE":321.748,"ARG_OF_PERICENTER":262.9025,"MEAN_ANOMALY":97.1637,"EPHEMERIS_TYPE":0,"CLASSIFICATION_TYPE":"U","NORAD_CAT_ID":57778,"ELEMENT_SET_NO":999,"REV_AT_EPOCH":10577,"BSTAR":-4.6025e-5,"MEAN_MOTION_DOT":-8.25e-6,"MEAN_MOTION_DDOT":0},{"OBJECT_NAME":"STARLINK-30359","OBJECT_ID":"2023-134J","EPOCH":"2025-07-28T08:46:34.042656","MEAN_MOTION":15.0252764,"ECCENTRICITY":0.0001398,"INCLINATION":43.0019,"RA_OF_ASC_NODE":323.8991,"ARG_OF_PERICENTER":273.2022,"MEAN_ANOMALY":86.866,"EPHEMERIS_TYPE":0,"CLASSIFICATION_TYPE":"U","NORAD_CAT_ID":57779,"ELEMENT_SET_NO":999,"REV_AT_EPOCH":10587,"BSTAR":0.00013126,"MEAN_MOTION_DOT":1.569e-5,"MEAN_MOTION_DDOT":0},{"OBJECT_NAME":"STARLINK-30380","OBJECT_ID":"2023-134K","EPOCH":"2025-07-28T18:58:43.010112","MEAN_MOTION":15.02530438,"ECCENTRICITY":0.0001305,"INCLINATION":43.0043,"RA_OF_ASC_NODE":333.8827,"ARG_OF_PERICENTER":266.129,"MEAN_ANOMALY":93.9403,"EPHEMERIS_TYPE":0,"CLASSIFICATION_TYPE":"U","NORAD_CAT_ID":57780,"ELEMENT_SET_NO":999,"REV_AT_EPOCH":10555,"BSTAR":-1.5304e-5,"MEAN_MOTION_DOT":-4.1e-6,"MEAN_MOTION_DDOT":0},{"OBJECT_NAME":"STARLINK-30369","OBJECT_ID":"2023-134L","EPOCH":"2025-07-28T16:20:49.424640","MEAN_MOTION":15.02529256,"ECCENTRICITY":0.0001182,"INCLINATION":43.0037,"RA_OF_ASC_NODE":334.7751,"ARG_OF_PERICENTER":263.0388,"MEAN_ANOMALY":97.032,"EPHEMERIS_TYPE":0,"CLASSIFICATION_TYPE":"U","NORAD_CAT_ID":57781,"ELEMENT_SET_NO":999,"REV_AT_EPOCH":10570,"BSTAR":-6.8784e-5,"MEAN_MOTION_DOT":-1.132e-5,"MEAN_MOTION_DDOT":0},{"OBJECT_NAME":"STARLINK-30376","OBJECT_ID":"2023-134M","EPOCH":"2025-07-28T09:29:08.585664","MEAN_MOTION":15.02535453,"ECCENTRICITY":0.000151,"INCLINATION":43.0051,"RA_OF_ASC_NODE":336.0834,"ARG_OF_PERICENTER":269.4827,"MEAN_ANOMALY":90.5843,"EPHEMERIS_TYPE":0,"CLASSIFICATION_TYPE":"U","NORAD_CAT_ID":57782,"ELEMENT_SET_NO":999,"REV_AT_EPOCH":10573,"BSTAR":7.5769e-6,"MEAN_MOTION_DOT":-1.01e-6,"MEAN_MOTION_DDOT":0},{"OBJECT_NAME":"STARLINK-30389","OBJECT_ID":"2023-134N","EPOCH":"2025-07-28T08:12:37.363104","MEAN_MOTION":15.02525043,"ECCENTRICITY":0.000102,"INCLINATION":43.0036,"RA_OF_ASC_NODE":336.5449,"ARG_OF_PERICENTER":275.5347,"MEAN_ANOMALY":84.5379,"EPHEMERIS_TYPE":0,"CLASSIFICATION_TYPE":"U","NORAD_CAT_ID":57783,"ELEMENT_SET_NO":999,"REV_AT_EPOCH":10572,"BSTAR":1.172e-5,"MEAN_MOTION_DOT":-4.5e-7,"MEAN_MOTION_DDOT":0},{"OBJECT_NAME":"STARLINK-30388","OBJECT_ID":"2023-134P","EPOCH":"2025-07-28T16:06:26.280000","MEAN_MOTION":15.02523601,"ECCENTRICITY":0.0001228,"INCLINATION":43.0045,"RA_OF_ASC_NODE":334.7112,"ARG_OF_PERICENTER":267.29,"MEAN_ANOMALY":92.7802,"EPHEMERIS_TYPE":0,"CLASSIFICATION_TYPE":"U","NORAD_CAT_ID":57784,"ELEMENT_SET_NO":999,"REV_AT_EPOCH":10577,"BSTAR":0.00025202,"MEAN_MOTION_DOT":3.201e-5,"MEAN_MOTION_DDOT":0},{"OBJECT_NAME":"STARLINK-30381","OBJECT_ID":"2023-134Q","EPOCH":"2025-07-28T09:09:55.761696","MEAN_MOTION":15.02557999,"ECCENTRICITY":0.0001091,"INCLINATION":43.0044,"RA_OF_ASC_NODE":335.8907,"ARG_OF_PERICENTER":272.5652,"MEAN_ANOMALY":87.5066,"EPHEMERIS_TYPE":0,"CLASSIFICATION_TYPE":"U","NORAD_CAT_ID":57785,"ELEMENT_SET_NO":999,"REV_AT_EPOCH":10573,"BSTAR":-0.00032612,"MEAN_MOTION_DOT":-4.609e-5,"MEAN_MOTION_DDOT":0},{"OBJECT_NAME":"STARLINK-30382","OBJECT_ID":"2023-134R","EPOCH":"2025-07-28T09:38:43.977696","MEAN_MOTION":15.02535443,"ECCENTRICITY":0.0001447,"INCLINATION":43.0052,"RA_OF_ASC_NODE":336.1306,"ARG_OF_PERICENTER":269.4805,"MEAN_ANOMALY":90.5871,"EPHEMERIS_TYPE":0,"CLASSIFICATION_TYPE":"U","NORAD_CAT_ID":57786,"ELEMENT_SET_NO":999,"REV_AT_EPOCH":10573,"BSTAR":5.3344e-5,"MEAN_MOTION_DOT":5.17e-6,"MEAN_MOTION_DDOT":0},{"OBJECT_NAME":"STARLINK-30378","OBJECT_ID":"2023-134S","EPOCH":"2025-07-28T20:15:15.363648","MEAN_MOTION":15.02544635,"ECCENTRICITY":0.000114,"INCLINATION":43.0051,"RA_OF_ASC_NODE":333.4228,"ARG_OF_PERICENTER":263.7502,"MEAN_ANOMALY":96.3211,"EPHEMERIS_TYPE":0,"CLASSIFICATION_TYPE":"U","NORAD_CAT_ID":57787,"ELEMENT_SET_NO":999,"REV_AT_EPOCH":10580,"BSTAR":-8.881e-5,"MEAN_MOTION_DOT":-1.403e-5,"MEAN_MOTION_DDOT":0},{"OBJECT_NAME":"STARLINK-30387","OBJECT_ID":"2023-134T","EPOCH":"2025-07-28T07:15:27.750528","MEAN_MOTION":15.02536216,"ECCENTRICITY":0.0001566,"INCLINATION":43.0041,"RA_OF_ASC_NODE":323.4372,"ARG_OF_PERICENTER":267.615,"MEAN_ANOMALY":92.4513,"EPHEMERIS_TYPE":0,"CLASSIFICATION_TYPE":"U","NORAD_CAT_ID":57788,"ELEMENT_SET_NO":999,"REV_AT_EPOCH":10587,"BSTAR":-1.3622e-5,"MEAN_MOTION_DOT":-3.88e-6,"MEAN_MOTION_DDOT":0},{"OBJECT_NAME":"STARLINK-30372","OBJECT_ID":"2023-134U","EPOCH":"2025-07-28T20:11:14.494272","MEAN_MOTION":15.27569071,"ECCENTRICITY":0.0001514,"INCLINATION":43.0001,"RA_OF_ASC_NODE":262.5529,"ARG_OF_PERICENTER":264.5553,"MEAN_ANOMALY":95.5126,"EPHEMERIS_TYPE":0,"CLASSIFICATION_TYPE":"U","NORAD_CAT_ID":57789,"ELEMENT_SET_NO":999,"REV_AT_EPOCH":10663,"BSTAR":-1.3675e-5,"MEAN_MOTION_DOT":-6.38e-6,"MEAN_MOTION_DDOT":0},{"OBJECT_NAME":"STARLINK-30373","OBJECT_ID":"2023-134V","EPOCH":"2025-07-28T14:00:01.999872","MEAN_MOTION":15.44067436,"ECCENTRICITY":0.0017586,"INCLINATION":42.9955,"RA_OF_ASC_NODE":283.0438,"ARG_OF_PERICENTER":27.4382,"MEAN_ANOMALY":276.1887,"EPHEMERIS_TYPE":0,"CLASSIFICATION_TYPE":"U","NORAD_CAT_ID":57790,"ELEMENT_SET_NO":999,"REV_AT_EPOCH":583,"BSTAR":0.0035543,"MEAN_MOTION_DOT":0.00170534,"MEAN_MOTION_DDOT":0}]
